[{"OBJECT_NAME":"STARLINK-2417","OBJECT_ID":"2021-027E","EPOCH":"2026-03-09T12:54:17.115840","MEAN_MOTION":15.30191527,"ECCENTRICITY":0.00011841,"INCLINATION":53.1603,"RA_OF_ASC_NODE":166.3022,"ARG_OF_PERICENTER":76.2156,"MEAN_ANOMALY":283.8977,"EPHEMERIS_TYPE":0,"CLASSIFICATION_TYPE":"U","NORAD_CAT_ID":48096,"ELEMENT_SET_NO":999,"REV_AT_EPOCH":27248,"BSTAR":-4.46308e-5,"MEAN_MOTION_DOT":-1.68e-5,"MEAN_MOTION_DDOT":0},{"OBJECT_NAME":"COSMOS 1975","OBJECT_ID":"1988-093A","EPOCH":"2026-03-09T14:15:08.474112","MEAN_MOTION":15.28069249,"ECCENTRICITY":0.0012117,"INCLINATION":82.5181,"RA_OF_ASC_NODE":117.7814,"ARG_OF_PERICENTER":163.8427,"MEAN_ANOMALY":196.3201,"EPHEMERIS_TYPE":0,"CLASSIFICATION_TYPE":"U","NORAD_CAT_ID":19573,"ELEMENT_SET_NO":999,"REV_AT_EPOCH":1939,"BSTAR":0.0002787,"MEAN_MOTION_DOT":7.676e-5,"MEAN_MOTION_DDOT":0}]
